{"type": "FeatureCollection", "features": [ {"type": "Feature", "properties": {"norad_id": 31535, "name": "FENGYUN 1C DEB", "group": "fengyun-1c-debris", "lat": -66.21917318281261, "lon": -132.69478732950128, "alt_km": 866.4027319237657, "timestamp": "2025-12-25T16:53:14.946422+00:00", "meta": {"OBJECT_NAME": "FENGYUN 1C DEB", "OBJECT_ID": "1999-025BYA", "EPOCH": "2025-12-24T07:35:01.239648", "MEAN_MOTION": 14.28365106, "ECCENTRICITY": 0.00883022, "INCLINATION": 98.0343, "RA_OF_ASC_NODE": 207.3324, "ARG_OF_PERICENTER": 128.5209, "MEAN_ANOMALY": 232.3933, "EPHEMERIS_TYPE": 0, "CLASSIFICATION_TYPE": "U", "NORAD_CAT_ID": 31535, "ELEMENT_SET_NO": 999, "REV_AT_EPOCH": 72096, "BSTAR": 0.00063622551, "MEAN_MOTION_DOT": 1.62e-05, "MEAN_MOTION_DDOT": 0}, "tle": {"line1": "1 31535U 99025BYA 25358.31598657  .00001620  00000+0  63623-3 0  9990", "line2": "2 31535  98.0343 207.3324 0088302 128.5209 232.3933 14.28365106720960"}}, "geometry": {"type": "Point", "coordinates": [-132.69478732950128, -66.21917318281261]}}, {"type": "Feature", "properties": {"norad_id": 31536, "name": "FENGYUN 1C DEB", "group": "fengyun-1c-debris", "lat": -80.60188409542731, "lon": -32.04091716107126, "alt_km": 923.8054879303481, "timestamp": "2025-12-25T16:53:14.946433+00:00", "meta": {"OBJECT_NAME": "FENGYUN 1C DEB", "OBJECT_ID": "1999-025BYB", "EPOCH": "2025-12-24T23:08:09.788352", "MEAN_MOTION": 14.5446839, "ECCENTRICITY": 0.02946387, "INCLINATION": 98.2364, "RA_OF_ASC_NODE": 266.1701, "ARG_OF_PERICENTER": 107.0249, "MEAN_ANOMALY": 256.3452, "EPHEMERIS_TYPE": 0, "CLASSIFICATION_TYPE": "U", "NORAD_CAT_ID": 31536, "ELEMENT_SET_NO": 999, "REV_AT_EPOCH": 96435, "BSTAR": 0.00094907114, "MEAN_MOTION_DOT": 7.204e-05, "MEAN_MOTION_DDOT": 0}, "tle": {"line1": "1 31536U 99025BYB 25358.96400218  .00007204  00000+0  94907-3 0  9990", "line2": "2 31536  98.2364 266.1701 0294638 107.0249 256.3452 14.54468390964358"}}, "geometry": {"type": "Point", "coordinates": [-32.04091716107126, -80.60188409542731]}}, {"type": "Feature", "properties": {"norad_id": 31537, "name": "FENGYUN 1C DEB", "group": "fengyun-1c-debris", "lat": 39.51043737303567, "lon": -18.693995651876502, "alt_km": 1030.3341046853093, "timestamp": "2025-12-25T16:53:14.946444+00:00", "meta": {"OBJECT_NAME": "FENGYUN 1C DEB", "OBJECT_ID": "1999-025BYC", "EPOCH": "2025-12-22T15:30:50.364864", "MEAN_MOTION": 14.20468164, "ECCENTRICITY": 0.03487105, "INCLINATION": 99.2934, "RA_OF_ASC_NODE": 150.3269, "ARG_OF_PERICENTER": 296.2481, "MEAN_ANOMALY": 60.3246, "EPHEMERIS_TYPE": 0, "CLASSIFICATION_TYPE": "U", "NORAD_CAT_ID": 31537, "ELEMENT_SET_NO": 999, "REV_AT_EPOCH": 93422, "BSTAR": 0.0026080635, "MEAN_MOTION_DOT": 0.00010318, "MEAN_MOTION_DDOT": 0}, "tle": {"line1": "1 31537U 99025BYC 25356.64641626  .00010318  00000+0  26081-2 0  9991", "line2": "2 31537  99.2934 150.3269 0348710 296.2481  60.3246 14.20468164934225"}}, "geometry": {"type": "Point", "coordinates": [-18.693995651876502, 39.51043737303567]}}, {"type": "Feature", "properties": {"norad_id": 31540, "name": "FENGYUN 1C DEB", "group": "fengyun-1c-debris", "lat": 67.39846101043479, "lon": 137.92430592162637, "alt_km": 790.424378253234, "timestamp": "2025-12-25T16:53:14.946454+00:00", "meta": {"OBJECT_NAME": "FENGYUN 1C DEB", "OBJECT_ID": "1999-025BYF", "EPOCH": "2025-12-23T05:34:33.525408", "MEAN_MOTION": 14.6550063, "ECCENTRICITY": 0.01764738, "INCLINATION": 99.0576, "RA_OF_ASC_NODE": 157.7332, "ARG_OF_PERICENTER": 268.7753, "MEAN_ANOMALY": 89.3225, "EPHEMERIS_TYPE": 0, "CLASSIFICATION_TYPE": "U", "NORAD_CAT_ID": 31540, "ELEMENT_SET_NO": 999, "REV_AT_EPOCH": 98455, "BSTAR": 0.0010217432, "MEAN_MOTION_DOT": 6.907e-05, "MEAN_MOTION_DDOT": 0}, "tle": {"line1": "1 31540U 99025BYF 25357.23233247  .00006907  00000+0  10217-2 0  9990", "line2": "2 31540  99.0576 157.7332 0176473 268.7753  89.3225 14.65500630984555"}}, "geometry": {"type": "Point", "coordinates": [137.92430592162637, 67.39846101043479]}}, {"type": "Feature", "properties": {"norad_id": 31541, "name": "FENGYUN 1C DEB", "group": "fengyun-1c-debris", "lat": 26.63366036609798, "lon": -32.07111680786655, "alt_km": 625.3941748531915, "timestamp": "2025-12-25T16:53:14.946465+00:00", "meta": {"OBJECT_NAME": "FENGYUN 1C DEB", "OBJECT_ID": "1999-025BYG", "EPOCH": "2025-12-24T04:13:32.260512", "MEAN_MOTION": 14.69005177, "ECCENTRICITY": 0.00784616, "INCLINATION": 98.9802, "RA_OF_ASC_NODE": 141.703, "ARG_OF_PERICENTER": 204.8536, "MEAN_ANOMALY": 154.8879, "EPHEMERIS_TYPE": 0, "CLASSIFICATION_TYPE": "U", "NORAD_CAT_ID": 31541, "ELEMENT_SET_NO": 999, "REV_AT_EPOCH": 98591, "BSTAR": 0.0015098651, "MEAN_MOTION_DOT": 9.226e-05, "MEAN_MOTION_DDOT": 0}, "tle": {"line1": "1 31541U 99025BYG 25358.17606783  .00009226  00000+0  15099-2 0  9994", "line2": "2 31541  98.9802 141.7030 0078461 204.8536 154.8879 14.69005177985916"}}, "geometry": {"type": "Point", "coordinates": [-32.07111680786655, 26.63366036609798]}}, {"type": "Feature", "properties": {"norad_id": 31542, "name": "FENGYUN 1C DEB", "group": "fengyun-1c-debris", "lat": 37.6407191744019, "lon": 46.78926281590797, "alt_km": 835.8344041532555, "timestamp": "2025-12-25T16:53:14.946475+00:00", "meta": {"OBJECT_NAME": "FENGYUN 1C DEB", "OBJECT_ID": "1999-025BYH", "EPOCH": "2025-12-23T09:00:46.396800", "MEAN_MOTION": 14.22851184, "ECCENTRICITY": 0.00478944, "INCLINATION": 98.7301, "RA_OF_ASC_NODE": 51.288, "ARG_OF_PERICENTER": 176.9296, "MEAN_ANOMALY": 183.2185, "EPHEMERIS_TYPE": 0, "CLASSIFICATION_TYPE": "U", "NORAD_CAT_ID": 31542, "ELEMENT_SET_NO": 999, "REV_AT_EPOCH": 96091, "BSTAR": 0.0012852727, "MEAN_MOTION_DOT": 2.877e-05, "MEAN_MOTION_DDOT": 0}, "tle": {"line1": "1 31542U 99025BYH 25357.37553700  .00002877  00000+0  12853-2 0  9996", "line2": "2 31542  98.7301  51.2880 0047894 176.9296 183.2185 14.22851184960910"}}, "geometry": {"type": "Point", "coordinates": [46.78926281590797, 37.6407191744019]}}, {"type": "Feature", "properties": {"norad_id": 31544, "name": "FENGYUN 1C DEB", "group": "fengyun-1c-debris", "lat": 80.38781115717042, "lon": -62.59864299215299, "alt_km": 854.2638724968801, "timestamp": "2025-12-25T16:53:14.946485+00:00", "meta": {"OBJECT_NAME": "FENGYUN 1C DEB", "OBJECT_ID": "1999-025BYK", "EPOCH": "2025-12-22T10:20:35.081376", "MEAN_MOTION": 14.14359975, "ECCENTRICITY": 0.00322241, "INCLINATION": 98.8282, "RA_OF_ASC_NODE": 47.5818, "ARG_OF_PERICENTER": 240.9868, "MEAN_ANOMALY": 118.8075, "EPHEMERIS_TYPE": 0, "CLASSIFICATION_TYPE": "U", "NORAD_CAT_ID": 31544, "ELEMENT_SET_NO": 999, "REV_AT_EPOCH": 95894, "BSTAR": 0.0006556952, "MEAN_MOTION_DOT": 1.216e-05, "MEAN_MOTION_DDOT": 0}, "tle": {"line1": "1 31544U 99025BYK 25356.43096159  .00001216  00000+0  65570-3 0  9995", "line2": "2 31544  98.8282  47.5818 0032224 240.9868 118.8075 14.14359975958942"}}, "geometry": {"type": "Point", "coordinates": [-62.59864299215299, 80.38781115717042]}}, {"type": "Feature", "properties": {"norad_id": 31546, "name": "FENGYUN 1C DEB", "group": "fengyun-1c-debris", "lat": -24.64709898815755, "lon": -115.61268234248803, "alt_km": 879.8308005447498, "timestamp": "2025-12-25T16:53:14.946495+00:00", "meta": {"OBJECT_NAME": "FENGYUN 1C DEB", "OBJECT_ID": "1999-025BYM", "EPOCH": "2025-12-24T11:02:59.010144", "MEAN_MOTION": 14.13203463, "ECCENTRICITY": 0.01455485, "INCLINATION": 98.2427, "RA_OF_ASC_NODE": 67.055, "ARG_OF_PERICENTER": 103.3307, "MEAN_ANOMALY": 258.4142, "EPHEMERIS_TYPE": 0, "CLASSIFICATION_TYPE": "U", "NORAD_CAT_ID": 31546, "ELEMENT_SET_NO": 999, "REV_AT_EPOCH": 94954, "BSTAR": 0.0015341217, "MEAN_MOTION_DOT": 3.139e-05, "MEAN_MOTION_DDOT": 0}, "tle": {"line1": "1 31546U 99025BYM 25358.46040521  .00003139  00000+0  15341-2 0  9990", "line2": "2 31546  98.2427  67.0550 0145548 103.3307 258.4142 14.13203463949544"}}, "geometry": {"type": "Point", "coordinates": [-115.61268234248803, -24.64709898815755]}}, {"type": "Feature", "properties": {"norad_id": 31547, "name": "FENGYUN 1C DEB", "group": "fengyun-1c-debris", "lat": 76.56870253948026, "lon": 1.8119418240276088, "alt_km": 835.361132540138, "timestamp": "2025-12-25T16:53:14.946506+00:00", "meta": {"OBJECT_NAME": "FENGYUN 1C DEB", "OBJECT_ID": "1999-025BYN", "EPOCH": "2025-12-23T20:38:21.518592", "MEAN_MOTION": 14.23194387, "ECCENTRICITY": 0.0054564, "INCLINATION": 99.0859, "RA_OF_ASC_NODE": 41.9836, "ARG_OF_PERICENTER": 221.2814, "MEAN_ANOMALY": 138.4231, "EPHEMERIS_TYPE": 0, "CLASSIFICATION_TYPE": "U", "NORAD_CAT_ID": 31547, "ELEMENT_SET_NO": 999, "REV_AT_EPOCH": 64175, "BSTAR": 0.0013187, "MEAN_MOTION_DOT": 2.981e-05, "MEAN_MOTION_DDOT": 0}, "tle": {"line1": "1 31547U 99025BYN 25357.85997128  .00002981  00000+0  13187-2 0  9997", "line2": "2 31547  99.0859  41.9836 0054564 221.2814 138.4231 14.23194387641754"}}, "geometry": {"type": "Point", "coordinates": [1.8119418240276088, 76.56870253948026]}}, {"type": "Feature", "properties": {"norad_id": 31550, "name": "FENGYUN 1C DEB", "group": "fengyun-1c-debris", "lat": -25.575478959742544, "lon": 2.808279685069094, "alt_km": 785.912959465064, "timestamp": "2025-12-25T16:53:14.946538+00:00", "meta": {"OBJECT_NAME": "FENGYUN 1C DEB", "OBJECT_ID": "1999-025BYR", "EPOCH": "2025-12-24T17:39:58.664160", "MEAN_MOTION": 14.40269304, "ECCENTRICITY": 0.01900874, "INCLINATION": 98.3119, "RA_OF_ASC_NODE": 357.8561, "ARG_OF_PERICENTER": 236.4503, "MEAN_ANOMALY": 121.8407, "EPHEMERIS_TYPE": 0, "CLASSIFICATION_TYPE": "U", "NORAD_CAT_ID": 31550, "ELEMENT_SET_NO": 999, "REV_AT_EPOCH": 65627, "BSTAR": 0.00062276558, "MEAN_MOTION_DOT": 2.391e-05, "MEAN_MOTION_DDOT": 0}, "tle": {"line1": "1 31550U 99025BYR 25358.73609565  .00002391  00000+0  62277-3 0  9994", "line2": "2 31550  98.3119 357.8561 0190087 236.4503 121.8407 14.40269304656272"}}, "geometry": {"type": "Point", "coordinates": [2.808279685069094, -25.575478959742544]}}]}